{
    "links": {
        "self": "http://www.neowsapp.com/rest/v1/neo/3018330?api_key=iIulBulltgU6a56xZRHN4H3l9WmuAYTsLGpBGhQ2"
    },
    "id": "3018330",
    "neo_reference_id": "3018330",
    "name": "(1999 CQ2)",
    "designation": "1999 CQ2",
    "nasa_jpl_url": "http://ssd.jpl.nasa.gov/sbdb.cgi?sstr=3018330",
    "absolute_magnitude_h": 27.3,
    "estimated_diameter": {
        "kilometers": {
            "estimated_diameter_min": 0.0092162655,
            "estimated_diameter_max": 0.0206081961
        },
        "meters": {
            "estimated_diameter_min": 9.216265485,
            "estimated_diameter_max": 20.6081961232
        },
        "miles": {
            "estimated_diameter_min": 0.0057267201,
            "estimated_diameter_max": 0.0128053354
        },
        "feet": {
            "estimated_diameter_min": 30.2370924539,
            "estimated_diameter_max": 67.6121941689
        }
    },
    "is_potentially_hazardous_asteroid": false,
    "close_approach_data": [
        {
            "close_approach_date": "1999-02-04",
            "close_approach_date_full": "1999-Feb-04 01:59",
            "epoch_date_close_approach": 918093540000,
            "relative_velocity": {
                "kilometers_per_second": "7.5538867597",
                "kilometers_per_hour": "27193.992334811",
                "miles_per_hour": "16897.2892927052"
            },
            "miss_distance": {
                "astronomical": "0.00678621",
                "lunar": "2.63983569",
                "kilometers": "1015202.5613727",
                "miles": "630817.62023526"
            },
            "orbiting_body": "Earth"
        },
        {
            "close_approach_date": "1999-02-04",
            "close_approach_date_full": "1999-Feb-04 11:15",
            "epoch_date_close_approach": 918126900000,
            "relative_velocity": {
                "kilometers_per_second": "7.8251686989",
                "kilometers_per_hour": "28170.6073160664",
                "miles_per_hour": "17504.1198625858"
            },
            "miss_distance": {
                "astronomical": "0.0068644356",
                "lunar": "2.6702654484",
                "kilometers": "1026904.944512172",
                "miles": "638089.1439330936"
            },
            "orbiting_body": "Moon"
        },
        {
            "close_approach_date": "2045-02-19",
            "close_approach_date_full": "2045-Feb-19 11:36",
            "epoch_date_close_approach": 2371116960000,
            "relative_velocity": {
                "kilometers_per_second": "11.6640813896",
                "kilometers_per_hour": "41990.6930024941",
                "miles_per_hour": "26091.3836603553"
            },
            "miss_distance": {
                "astronomical": "0.1406647385",
                "lunar": "54.7185832765",
                "kilometers": "21043145.263706995",
                "miles": "13075604.143046731"
            },
            "orbiting_body": "Earth"
        }
    ],
    "orbital_data": {
        "orbit_id": "11",
        "orbit_determination_date": "2017-04-06 09:17:33",
        "first_observation_date": "1999-02-07",
        "last_observation_date": "1999-02-13",
        "data_arc_in_days": 6,
        "observations_used": 13,
        "orbit_uncertainty": "8",
        "minimum_orbit_intersection": ".0051876",
        "jupiter_tisserand_invariant": "4.453",
        "epoch_osculation": "2451219.5",
        "eccentricity": ".3810155416680117",
        "semi_major_axis": "1.503143584778561",
        "inclination": "3.697283683836495",
        "ascending_node_longitude": "318.2489907346482",
        "orbital_period": "673.1302817795511",
        "perihelion_distance": ".9304225176193608",
        "perihelion_argument": "137.8927473479823",
        "aphelion_distance": "2.075864651937761",
        "perihelion_time": "2451182.524610463183",
        "mean_anomaly": "19.77498352631459",
        "mean_motion": ".5348147449974614",
        "equinox": "J2000",
        "orbit_class": {
            "orbit_class_type": "APO",
            "orbit_class_description": "Near-Earth asteroid orbits which cross the Earth’s orbit similar to that of 1862 Apollo",
            "orbit_class_range": "a (semi-major axis) > 1.0 AU; q (perihelion) < 1.017 AU"
        }
    },
    "is_sentry_object": false
}